{
  "type": "FeatureCollection",
  "features": [
    {
      "type": "Feature",
      "properties": {
        "norad_id": 43719,
        "name": "HYSIS",
        "group": "resource",
        "lat": -9.47682259546889,
        "lon": -137.48072996279615,
        "alt_km": 638.4904489198225,
        "timestamp": "2025-12-06T20:37:55.716810+00:00",
        "meta_object_name": "HYSIS",
        "meta_object_id": "2018-096A",
        "meta_epoch": "2025-12-06T14:54:20.806560",
        "meta_mean_motion": 14.78620122,
        "meta_eccentricity": 0.00015705,
        "meta_inclination": 98.0104,
        "meta_ra_of_asc_node": 43.6288,
        "meta_arg_of_pericenter": 64.146,
        "meta_mean_anomaly": 295.9913,
        "meta_ephemeris_type": 0,
        "meta_classification_type": "U",
        "meta_norad_cat_id": 43719,
        "meta_element_set_no": 999,
        "meta_rev_at_epoch": 37896,
        "meta_bstar": 0.00038100951,
        "meta_mean_motion_dot": 2.738e-05,
        "meta_mean_motion_ddot": 0,
        "tle_line1": "1 43719U 18096A   25340.62107415  .00002738  00000+0  38101-3 0  9993",
        "tle_line2": "2 43719  98.0104  43.6288 0001570  64.1460 295.9913 14.78620122378967"
      },
      "geometry": {
        "type": "Point",
        "coordinates": [
          -137.48072996279615,
          -9.47682259546889
        ]
      }
    },
    {
      "type": "Feature",
      "properties": {
        "norad_id": 43783,
        "name": "KAZSTSAT",
        "group": "resource",
        "lat": -11.818947379480294,
        "lon": 17.867671575334242,
        "alt_km": 569.0947608066726,
        "timestamp": "2025-12-06T20:37:55.716821+00:00",
        "meta_object_name": "KAZSTSAT",
        "meta_object_id": "2018-099AB",
        "meta_epoch": "2025-12-06T07:52:16.758336",
        "meta_mean_motion": 14.99321431,
        "meta_eccentricity": 0.00062836,
        "meta_inclination": 97.4553,
        "meta_ra_of_asc_node": 15.7886,
        "meta_arg_of_pericenter": 355.5156,
        "meta_mean_anomaly": 4.601,
        "meta_ephemeris_type": 0,
        "meta_classification_type": "U",
        "meta_norad_cat_id": 43783,
        "meta_element_set_no": 999,
        "meta_rev_at_epoch": 38240,
        "meta_bstar": 0.00028933307,
        "meta_mean_motion_dot": 3.48e-05,
        "meta_mean_motion_ddot": 0,
        "tle_line1": "1 43783U 18099AB  25340.32797174  .00003480  00000+0  28933-3 0  9998",
        "tle_line2": "2 43783  97.4553  15.7886 0006283 355.5156   4.6010 14.99321431382409"
      },
      "geometry": {
        "type": "Point",
        "coordinates": [
          17.867671575334242,
          -11.818947379480294
        ]
      }
    },
    {
      "type": "Feature",
      "properties": {
        "norad_id": 43831,
        "name": "SAUDISAT 5A",
        "group": "resource",
        "lat": -25.907703962011638,
        "lon": -142.42312714854575,
        "alt_km": 497.922341846559,
        "timestamp": "2025-12-06T20:37:55.716832+00:00",
        "meta_object_name": "SAUDISAT 5A",
        "meta_object_id": "2018-102A",
        "meta_epoch": "2025-12-06T15:00:36.980928",
        "meta_mean_motion": 15.25544547,
        "meta_eccentricity": 0.00118297,
        "meta_inclination": 97.336,
        "meta_ra_of_asc_node": 40.935,
        "meta_arg_of_pericenter": 94.9068,
        "meta_mean_anomaly": 265.3521,
        "meta_ephemeris_type": 0,
        "meta_classification_type": "U",
        "meta_norad_cat_id": 43831,
        "meta_element_set_no": 999,
        "meta_rev_at_epoch": 38629,
        "meta_bstar": 0.00039968101,
        "meta_mean_motion_dot": 0.0001009,
        "meta_mean_motion_ddot": 0,
        "tle_line1": "1 43831U 18102A   25340.62542802  .00010090  00000+0  39968-3 0  9991",
        "tle_line2": "2 43831  97.3360  40.9350 0011829  94.9068 265.3521 15.25544547386291"
      },
      "geometry": {
        "type": "Point",
        "coordinates": [
          -142.42312714854575,
          -25.907703962011638
        ]
      }
    },
    {
      "type": "Feature",
      "properties": {
        "norad_id": 43833,
        "name": "SAUDISAT 5B",
        "group": "resource",
        "lat": -69.45402735029985,
        "lon": -156.2391957519218,
        "alt_km": 503.10587926799144,
        "timestamp": "2025-12-06T20:37:55.716843+00:00",
        "meta_object_name": "SAUDISAT 5B",
        "meta_object_id": "2018-102C",
        "meta_epoch": "2025-12-06T14:48:57.394944",
        "meta_mean_motion": 15.25899877,
        "meta_eccentricity": 0.00125199,
        "meta_inclination": 97.3455,
        "meta_ra_of_asc_node": 43.6548,
        "meta_arg_of_pericenter": 97.4256,
        "meta_mean_anomaly": 262.8406,
        "meta_ephemeris_type": 0,
        "meta_classification_type": "U",
        "meta_norad_cat_id": 43833,
        "meta_element_set_no": 999,
        "meta_rev_at_epoch": 38640,
        "meta_bstar": 0.00039192966,
        "meta_mean_motion_dot": 0.00010002,
        "meta_mean_motion_ddot": 0,
        "tle_line1": "1 43833U 18102C   25340.61733096  .00010002  00000+0  39193-3 0  9992",
        "tle_line2": "2 43833  97.3455  43.6548 0012519  97.4256 262.8406 15.25899877386407"
      },
      "geometry": {
        "type": "Point",
        "coordinates": [
          -156.2391957519218,
          -69.45402735029985
        ]
      }
    },
    {
      "type": "Feature",
      "properties": {
        "norad_id": 44622,
        "name": "GAOFEN-10R",
        "group": "resource",
        "lat": 25.794209459528854,
        "lon": -75.56772846296705,
        "alt_km": 614.9230865526979,
        "timestamp": "2025-12-06T20:37:55.716854+00:00",
        "meta_object_name": "GAOFEN-10R",
        "meta_object_id": "2019-066A",
        "meta_epoch": "2025-12-06T14:02:12.216768",
        "meta_mean_motion": 14.82759408,
        "meta_eccentricity": 0.0008181,
        "meta_inclination": 98.0272,
        "meta_ra_of_asc_node": 288.0672,
        "meta_arg_of_pericenter": 58.837,
        "meta_mean_anomaly": 301.3644,
        "meta_ephemeris_type": 0,
        "meta_classification_type": "U",
        "meta_norad_cat_id": 44622,
        "meta_element_set_no": 999,
        "meta_rev_at_epoch": 33383,
        "meta_bstar": 0.00041464288,
        "meta_mean_motion_dot": 3.298e-05,
        "meta_mean_motion_ddot": 0,
        "tle_line1": "1 44622U 19066A   25340.58486362  .00003298  00000+0  41464-3 0  9999",
        "tle_line2": "2 44622  98.0272 288.0672 0008181  58.8370 301.3644 14.82759408333839"
      },
      "geometry": {
        "type": "Point",
        "coordinates": [
          -75.56772846296705,
          25.794209459528854
        ]
      }
    },
    {
      "type": "Feature",
      "properties": {
        "norad_id": 44804,
        "name": "CARTOSAT-3",
        "group": "resource",
        "lat": 41.41121471030979,
        "lon": -132.8470708658391,
        "alt_km": 496.62226388059753,
        "timestamp": "2025-12-06T20:37:55.716865+00:00",
        "meta_object_name": "CARTOSAT-3",
        "meta_object_id": "2019-081A",
        "meta_epoch": "2025-12-06T15:17:07.573344",
        "meta_mean_motion": 15.19293659,
        "meta_eccentricity": 0.00139359,
        "meta_inclination": 97.4592,
        "meta_ra_of_asc_node": 40.2973,
        "meta_arg_of_pericenter": 106.185,
        "meta_mean_anomaly": 254.0919,
        "meta_ephemeris_type": 0,
        "meta_classification_type": "U",
        "meta_norad_cat_id": 44804,
        "meta_element_set_no": 999,
        "meta_rev_at_epoch": 33423,
        "meta_bstar": 0.00037093999,
        "meta_mean_motion_dot": 7.781e-05,
        "meta_mean_motion_ddot": 0,
        "tle_line1": "1 44804U 19081A   25340.63689321  .00007781  00000+0  37094-3 0  9999",
        "tle_line2": "2 44804  97.4592  40.2973 0013935 106.1850 254.0919 15.19293659334230"
      },
      "geometry": {
        "type": "Point",
        "coordinates": [
          -132.8470708658391,
          41.41121471030979
        ]
      }
    },
    {
      "type": "Feature",
      "properties": {
        "norad_id": 44819,
        "name": "GAOFEN-12 01",
        "group": "resource",
        "lat": -21.63038214816129,
        "lon": -9.583999892138639,
        "alt_km": 632.264583901896,
        "timestamp": "2025-12-06T20:37:55.716876+00:00",
        "meta_object_name": "GAOFEN-12 01",
        "meta_object_id": "2019-082A",
        "meta_epoch": "2025-12-06T14:14:34.632960",
        "meta_mean_motion": 14.80646526,
        "meta_eccentricity": 0.00011845,
        "meta_inclination": 97.8125,
        "meta_ra_of_asc_node": 347.0358,
        "meta_arg_of_pericenter": 275.9784,
        "meta_mean_anomaly": 84.1293,
        "meta_ephemeris_type": 0,
        "meta_classification_type": "U",
        "meta_norad_cat_id": 44819,
        "meta_element_set_no": 999,
        "meta_rev_at_epoch": 32559,
        "meta_bstar": 0.00013547298,
        "meta_mean_motion_dot": 9.9e-06,
        "meta_mean_motion_ddot": 0,
        "tle_line1": "1 44819U 19082A   25340.59345640  .00000990  00000+0  13547-3 0  9996",
        "tle_line2": "2 44819  97.8125 347.0358 0001184 275.9784  84.1293 14.80646526325599"
      },
      "geometry": {
        "type": "Point",
        "coordinates": [
          -9.583999892138639,
          -21.63038214816129
        ]
      }
    }
  ]
}